full_name,a,e,i,om,w,q,ad,per_y,data_arc,n_obs_used,H,first_obs,epoch
257744 (2000 AD205),1.695,0.5862,7.92,157.18,192.1,0.701,2.69,2.21,8065,550,18.61,2000-01-08,2460200.5
257838 (2000 JQ66),2.166,0.4189,7.06,188.92,103.91,1.259,3.07,3.19,14537,805,18,1984-03-29,2460200.5
258325 (2001 VB2),1.719,0.3957,7.94,50.04,319.78,1.039,2.4,2.25,7126,291,18.99,2001-11-07,2460200.5
259221 (2003 BA21),1.1,0.8332,23.7,308.86,18.15,0.184,2.02,1.15,8034,174,19.24,2002-02-06,2460200.5
259802 (2004 BJ86),1.755,0.3302,31.43,124.09,65.37,1.175,2.33,2.32,7142,278,18.83,2004-01-29,2460200.5
260141 (2004 QT24),1.133,0.2519,17.75,36.1,76.65,0.847,1.42,1.21,9049,812,18.31,1998-08-30,2460200.5
260277 (2004 TR12),0.8951,0.2097,19.36,155.36,77.77,0.707,1.08,0.847,6283,551,18.27,2004-10-07,2460200.5
261938 (2006 OB5),1.533,0.2187,0.71,356.14,357.4,1.198,1.87,1.9,7739,394,20.43,2002-05-07,2460200.5
262623 (2006 WY2),0.9833,0.3329,27.55,99.84,159.98,0.656,1.31,0.975,5827,952,18.64,2006-11-17,2460200.5
263976 (2009 KD5),1.046,0.2615,13.47,104.5,294.34,0.773,1.32,1.07,26652,769,18.41,1950-05-19,2460200.5
264308 (1999 NA5),1.436,0.2487,4.28,262.11,318.91,1.079,1.79,1.72,8699,179,20.45,1999-06-22,2460200.5
264357 (2000 AZ93),0.7469,0.36,8.59,277.33,8.15,0.478,1.02,0.645,8000,160,21.17,2000-01-07,2460200.5
264993 (2003 DX10),1.376,0.4109,3.15,61.9,193.88,0.81,1.94,1.61,7665,273,20.41,2003-02-26,2460200.5
265032 (2003 OU),2.304,0.7024,40.14,206.32,175.49,0.686,3.92,3.5,6509,158,16.55,2003-07-20,2460200.5
265187 (2003 YS117),1.249,0.3304,29.56,300.4,322.06,0.837,1.66,1.4,6636,348,18.34,2003-12-27,2460200.5
265196 (2004 BW58),1.455,0.3785,15.21,132.62,301.83,0.904,2.01,1.75,5975,395,18.84,2004-01-19,2460200.5
265482 (2005 EE),1.129,0.3278,6.17,110.78,284.74,0.759,1.5,1.2,6907,462,21.21,2004-05-14,2460200.5
265661 (2005 UB),1.896,0.738,27.68,272.11,3.15,0.497,3.3,2.61,6266,1851,16.82,2005-10-21,2460200.5
265962 (2006 CG),1.829,0.3359,4.35,233.94,119.24,1.215,2.44,2.47,7544,927,19.03,2002-05-19,2460200.5
267131 (2000 EK26),2.41,0.6572,15.64,126.42,305.5,0.826,3.99,3.74,5506,84,18.21,2000-03-04,2460200.5
267136 (2000 EF104),1.148,0.4178,10.82,66.34,346.81,0.668,1.63,1.23,8081,523,18.91,2000-03-11,2460200.5
267221 (2001 AD2),1.04,0.6598,1.64,210.54,111.95,0.354,1.73,1.06,6976,461,19.85,2001-01-02,2460200.5
267223 (2001 DQ8),1.842,0.9011,12.78,342.66,14.84,0.182,3.5,2.5,8110,448,18.16,2001-02-16,2460200.5
267270 (2001 RP17),2.634,0.5163,8.16,353.24,60.61,1.274,3.99,4.27,8908,197,18.27,1994-03-16,2460200.5
267337 (2001 VK5),1.269,0.514,19.43,54.22,263.94,0.617,1.92,1.43,8136,775,18.08,2001-11-11,2460200.5
267494 (2002 JB9),2.719,0.7845,46.75,70.22,278,0.586,4.85,4.48,6835,563,16.18,2002-04-21,2460200.5
267720 (2003 CA),1.379,0.7197,21.15,126.17,234.81,0.387,2.37,1.62,7696,353,18.98,2003-01-28,2460200.5
267729 (2003 FC5),1.917,0.6086,5.83,188.76,271.26,0.75,3.08,2.65,7646,817,18.46,2002-08-16,2460200.5
267759 (2003 MC7),1.374,0.1845,21.21,137.02,101.26,1.12,1.63,1.61,25137,591,18.92,1953-04-13,2460200.5
267940 (2004 EM20),1.105,0.5239,14.14,343.77,314.89,0.526,1.68,1.16,6119,289,20.39,2004-02-19,2460200.5
269690 (1996 RG3),2.001,0.6035,3.58,158.06,300.24,0.794,3.21,2.83,7554,242,18.47,1996-09-11,2460200.5
271480 (2004 FX31),1.261,0.4419,24.75,169.14,285.77,0.704,1.82,1.42,12150,1606,17.67,1990-06-22,2460200.5
274138 (2008 FU6),1.324,0.569,12.83,192.83,129.14,0.571,2.08,1.52,7708,1138,17.77,2003-01-14,2460200.5
274855 (2009 RB4),1.639,0.3009,9.54,182.16,75.05,1.146,2.13,2.1,11814,503,18.55,1990-07-27,2460200.5
275545 (1998 UN1),1.513,0.2209,32.43,217.86,87.69,1.179,1.85,1.86,8879,295,18.2,1998-10-19,2460200.5
275558 (1999 RH33),1.551,0.1708,11.02,168.32,351.6,1.286,1.82,1.93,13719,486,19.07,1985-02-28,2460200.5
275611 (1999 XX262),1.533,0.1818,8.23,334.65,102.73,1.254,1.81,1.9,17894,1269,18.15,1974-06-17,2460200.5
275677 (2000 RS11),1.28,0.3205,17.1,172.16,301.69,0.87,1.69,1.45,8328,409,19.22,2000-09-02,2460200.5
275714 (2000 YH4),1.49,0.4586,17.97,85.55,269.52,0.806,2.17,1.82,8087,401,18.82,2000-12-19,2460200.5
275792 (2001 QH142),1.527,0.222,30.59,318.31,253.46,1.188,1.87,1.89,7810,200,18.41,2001-08-22,2460200.5
275974 (2001 XD),2.045,0.7959,11.3,63.96,232.74,0.417,3.67,2.92,5457,339,18.68,2001-12-02,2460200.5
275975 (2001 XF1),1.479,0.4638,22.03,87.77,231.6,0.793,2.16,1.8,7352,181,19.47,2001-12-07,2460200.5
275976 (2001 XV10),2.205,0.5854,22.36,31.38,342.06,0.914,3.5,3.27,7865,644,16.28,2001-11-11,2460200.5
276033 (2002 AJ129),1.37,0.915,15.45,138.03,211.03,0.117,2.62,1.6,7730,504,18.8,2002-01-15,2460200.5
276049 (2002 CE26),2.233,0.5611,47.29,161.89,228.04,0.98,3.49,3.34,7427,1754,16.67,2001-12-26,2460200.5
276111 (2002 GM9),1.865,0.3493,17.32,44.11,273.81,1.214,2.52,2.55,9715,236,18.62,1997-05-01,2460200.5
276392 (2002 XH4),1.608,0.2707,14.52,93.45,213.73,1.173,2.04,2.04,7742,223,19.49,2002-12-03,2460200.5
276397 (2002 XA40),2.264,0.4803,4.45,300.54,66.92,1.176,3.35,3.41,10009,630,17.2,1995-10-15,2460200.5
276409 (2002 YN2),1.243,0.5873,50.26,290.68,38.48,0.513,1.97,1.39,7690,367,18.62,2002-12-27,2460200.5
276468 (2003 HQ32),1.978,0.3456,35.88,217.57,291.32,1.294,2.66,2.78,6767,313,18.09,2003-04-29,2460200.5
276660 (2003 WB25),1.785,0.2885,29.79,259.94,210.99,1.27,2.3,2.39,7022,318,18.41,2003-11-05,2460200.5
276703 (2004 BL11),1.26,0.7499,9.81,142.42,176.95,0.315,2.21,1.41,7328,282,19.3,2004-01-18,2460200.5
276732 (2004 EV9),1.471,0.7809,40.83,172.41,226.71,0.322,2.62,1.78,7544,566,17.74,2003-06-24,2460200.5
276770 (2004 HC),0.7891,0.5987,28.99,202.98,159.38,0.317,1.26,0.701,6885,211,19.96,2004-04-16,2460200.5
276786 (2004 KD1),1.719,0.3303,10.13,271.47,9.93,1.151,2.29,2.25,7744,810,17.83,2002-12-06,2460200.5
276891 (2004 RH340),1.295,0.3815,26.11,51.54,335.44,0.801,1.79,1.47,7044,102,19.51,2004-09-15,2460200.5
277039 (2005 CF41),1.648,0.5861,15.88,132.18,208.78,0.682,2.61,2.12,6948,264,18.55,2005-02-09,2460200.5
277127 (2005 GW119),1.64,0.2332,2.88,171.06,242.88,1.258,2.02,2.1,7698,560,18.76,2001-05-24,2460200.5
277142 (2005 LG8),1.755,0.8274,26.57,211.3,193.81,0.303,3.21,2.33,6549,514,16.79,2005-06-07,2460200.5
277279 (2005 SA71),1.618,0.3675,20.21,44.27,283.75,1.023,2.21,2.06,6346,253,18.96,2005-09-30,2460200.5
277473 (2005 WD1),2.2,0.4416,43.08,52.29,285.93,1.228,3.17,3.26,6482,1105,16.79,2004-04-17,2460200.5
277475 (2005 WK4),1.011,0.2374,9.84,138.12,74.11,0.771,1.25,1.02,3563,332,20.22,2005-11-27,2460200.5
277570 (2005 YP180),1.372,0.6172,4.11,288.92,92.44,0.525,2.22,1.61,5899,236,19.34,2005-12-30,2460200.5
277616 (2006 BN6),2.569,0.6979,18.65,249.6,338.49,0.776,4.36,4.12,7041,399,17.41,2002-09-27,2460200.5
277617 (2006 BT7),1.522,0.6329,16.15,298.59,342.53,0.559,2.49,1.88,6553,287,18.18,2006-01-22,2460200.5
277810 (2006 FV35),1.002,0.3776,7.11,179.47,170.8,0.623,1.38,1,10547,239,21.72,1995-04-01,2460200.5
277830 (2006 HR29),0.9855,0.2638,9.54,232.53,212.66,0.726,1.25,0.978,3731,232,20.71,2006-04-24,2460200.5
277958 (2006 SP134),2.049,0.7368,13.05,16.64,192.3,0.539,3.56,2.93,7292,241,16.85,2003-09-26,2460200.5
278327 (2007 HA59),2.514,0.7255,54.49,57.1,17.63,0.69,4.34,3.99,7341,318,15.42,2003-05-11,2460200.5
278381 (2007 MR),1.023,0.2588,5.83,172.76,217.66,0.758,1.29,1.03,1712,85,21.92,2007-06-18,2460200.5
279744 (1998 KM3),1.671,0.611,4.66,263.03,85.34,0.65,2.69,2.16,5710,108,19.91,1998-05-24,2460200.5
279816 (2000 JE5),1.238,0.4005,50.74,41.23,285.17,0.742,1.73,1.38,8224,188,19.27,2000-05-01,2460200.5
280136 (2002 OM4),1.496,0.5631,55.3,143.05,28.15,0.654,2.34,1.83,7844,370,17.2,2002-07-17,2460200.5
280244 Ati (2002 WP11),2.126,0.4405,5.39,267.85,56.26,1.19,3.06,3.1,7419,295,18.22,2002-11-24,2460200.5
280491 (2004 MO7),1.105,0.4839,24.08,38.51,61.42,0.57,1.64,1.16,6642,47,19.02,2004-06-16,2460200.5
281070 (2006 OY10),1.807,0.5742,35.63,233.99,92.46,0.769,2.84,2.43,6387,181,18.75,2006-07-21,2460200.5
281365 (2008 CM116),1.631,0.6632,18.71,0.11,355.82,0.549,2.71,2.08,8423,408,17.53,2000-03-03,2460200.5
281375 (2008 JV19),0.9856,0.2485,7.23,141.96,310.6,0.741,1.23,0.978,3374,607,20.81,2008-05-08,2460200.5
283457 (2001 MQ3),2.234,0.4548,5.57,313.33,25.23,1.218,3.25,3.34,25573,455,19.1,1951-11-05,2460200.5
283460 (2001 PD1),2.235,0.4586,5.96,281.97,95.31,1.21,3.26,3.34,7485,1143,18.48,2001-08-04,2460200.5
283729 (2002 UX),1.474,0.1634,20.21,263.84,84.37,1.233,1.71,1.79,7621,1329,18.2,2002-06-09,2460200.5
284114 (2005 TZ51),2.126,0.4289,10.84,280.31,127.58,1.214,3.04,3.1,6987,673,17.95,2003-01-14,2460200.5
284422 (2006 YD),2.623,0.6939,7.74,223.38,352.07,0.803,4.44,4.25,6260,257,17.36,2006-12-16,2460200.5
285110 (1995 MA1),2.611,0.5874,25.83,87.61,265.89,1.077,4.15,4.22,24894,160,17.16,1953-12-06,2460200.5
285179 (1996 TY11),1.228,0.5355,13.93,30.61,158.78,0.57,1.89,1.36,9865,206,19.34,1996-10-15,2460200.5
285263 (1998 QE2),2.421,0.5726,12.88,250.07,345.68,1.035,3.81,3.77,9251,1913,17.28,1998-08-19,2460200.5
285331 (1999 FN53),1.735,0.4561,20.17,50.57,191.73,0.944,2.53,2.29,9095,522,18.2,1999-03-31,2460200.5
285339 (1999 JR6),1.367,0.6754,20.32,52.61,27.28,0.444,2.29,1.6,8800,305,18.07,1999-05-10,2460200.5
285540 (2000 GU127),2.105,0.7268,8.49,171.93,138.87,0.575,3.63,3.05,6867,333,18.64,2000-04-07,2460200.5
285567 (2000 OM),1.702,0.6405,13.57,123.45,74.05,0.612,2.79,2.22,8062,536,18.51,1999-10-16,2460200.5
285571 (2000 PQ9),1.904,0.4315,13.47,297.19,6.99,1.082,2.73,2.63,8202,7306,18.65,2000-08-09,2460200.5
285625 (2000 RD34),1.964,0.3472,6.93,308.92,132.21,1.282,2.65,2.75,8257,636,17.91,2000-09-01,2460200.5
285638 (2000 SO10),1.299,0.5405,36.96,356.42,204.05,0.597,2,1.48,8058,263,17.64,2000-09-23,2460200.5
285818 (2001 BZ39),1.988,0.4215,8.83,225.07,197.25,1.15,2.83,2.8,7413,178,18.86,2000-12-22,2460200.5
285838 (2001 FA1),1.883,0.3595,33.82,175.74,326.76,1.206,2.56,2.58,8260,392,17.97,2001-03-17,2460200.5
285944 (2001 RZ11),2.192,0.5064,53.07,324.03,340.54,1.082,3.3,3.25,7825,1041,16.7,2001-09-10,2460200.5
285990 (2001 SK9),1.786,0.7891,25.95,195.74,34.58,0.377,3.2,2.39,6984,415,17.95,2001-09-17,2460200.5
